{
  "norad_id": 49281,
  "name": "ONEWEB-0349",
  "history": [
    {
      "epoch": "2026-04-11T18:56:14.739936Z",
      "apogee_km": 1183.0829591767315,
      "perigee_km": 1180.462694430762,
      "latitude_deg": 1.596323297592751e-05,
      "longitude_deg": 163.6310731764273,
      "height_km": 1184.6927650609728,
      "semi_major_axis_km": 7559.909826803747,
      "eccentricity": 0.0001733,
      "inclination_deg": 87.914,
      "raan_deg": 287.696,
      "arg_perigee_deg": 90.8617,
      "mean_anomaly_deg": 269.2715,
      "mean_motion_rev_day": 13.20771956
    },
    {
      "epoch": "2026-04-13T05:28:56.982720Z",
      "apogee_km": 1183.0983591535796,
      "perigee_km": 1180.4402960887874,
      "latitude_deg": -6.752856315753696e-05,
      "longitude_deg": 3.7485423387122614,
      "height_km": 1184.701978720118,
      "semi_major_axis_km": 7559.906327621183,
      "eccentricity": 0.0001758,
      "inclination_deg": 87.9136,
      "raan_deg": 287.4082,
      "arg_perigee_deg": 91.3989,
      "mean_anomaly_deg": 268.7345,
      "mean_motion_rev_day": 13.20772873
    },
    {
      "epoch": "2026-04-14T17:50:44.599200Z",
      "apogee_km": 1183.0808257171057,
      "perigee_km": 1180.4605617104644,
      "latitude_deg": 2.593806017250394e-05,
      "longitude_deg": 176.5040606433411,
      "height_km": 1184.7180475344803,
      "semi_major_axis_km": 7559.907693713785,
      "eccentricity": 0.0001733,
      "inclination_deg": 87.9137,
      "raan_deg": 287.1055,
      "arg_perigee_deg": 92.0609,
      "mean_anomaly_deg": 268.0723,
      "mean_motion_rev_day": 13.20772515
    },
    {
      "epoch": "2026-04-15T17:28:54.547104Z",
      "apogee_km": 1183.0773202441324,
      "perigee_km": 1180.46612777086,
      "latitude_deg": -3.160802218409472e-06,
      "longitude_deg": -179.20488816281664,
      "height_km": 1184.7231840289912,
      "semi_major_axis_km": 7559.908724007496,
      "eccentricity": 0.0001727,
      "inclination_deg": 87.9137,
      "raan_deg": 286.9087,
      "arg_perigee_deg": 92.2477,
      "mean_anomaly_deg": 267.8854,
      "mean_motion_rev_day": 13.20772245
    },
    {
      "epoch": "2026-04-16T18:56:09.809088Z",
      "apogee_km": 1183.097897038906,
      "perigee_km": 1180.4413458521303,
      "latitude_deg": 5.705827434877369e-05,
      "longitude_deg": 157.72405598701138,
      "height_km": 1184.7276908477172,
      "semi_major_axis_km": 7559.906621445518,
      "eccentricity": 0.0001757,
      "inclination_deg": 87.9137,
      "raan_deg": 286.6966,
      "arg_perigee_deg": 92.4972,
      "mean_anomaly_deg": 267.6363,
      "mean_motion_rev_day": 13.20772796
    },
    {
      "epoch": "2026-04-17T22:12:30.566592Z",
      "apogee_km": 1183.1124770577853,
      "perigee_km": 1180.4300704040988,
      "latitude_deg": -3.2854455337967995e-05,
      "longitude_deg": 107.29042558842802,
      "height_km": 1184.7390769605684,
      "semi_major_axis_km": 7559.908273730942,
      "eccentricity": 0.00017741,
      "inclination_deg": 87.9137,
      "raan_deg": 286.4695,
      "arg_perigee_deg": 92.89,
      "mean_anomaly_deg": 267.2436,
      "mean_motion_rev_day": 13.20772363
    },
    {
      "epoch": "2026-04-18T18:12:29.734272Z",
      "apogee_km": 1183.0918570569538,
      "perigee_km": 1180.4458900012178,
      "latitude_deg": 4.215267722559475e-05,
      "longitude_deg": 166.30603506813245,
      "height_km": 1184.734171829209,
      "semi_major_axis_km": 7559.9058735290855,
      "eccentricity": 0.000175,
      "inclination_deg": 87.9139,
      "raan_deg": 286.303,
      "arg_perigee_deg": 92.8198,
      "mean_anomaly_deg": 267.3136,
      "mean_motion_rev_day": 13.20772992
    },
    {
      "epoch": "2026-04-19T17:50:39.702048Z",
      "apogee_km": 1183.0932351481651,
      "perigee_km": 1180.4457558934337,
      "latitude_deg": -6.476039271793864e-05,
      "longitude_deg": 170.5968976331332,
      "height_km": 1184.7415039076557,
      "semi_major_axis_km": 7559.906495520799,
      "eccentricity": 0.0001751,
      "inclination_deg": 87.9139,
      "raan_deg": 286.1061,
      "arg_perigee_deg": 93.1083,
      "mean_anomaly_deg": 267.025,
      "mean_motion_rev_day": 13.20772829
    },
    {
      "epoch": "2026-04-20T10:12:28.080864Z",
      "apogee_km": 1183.0939221732979,
      "perigee_km": 1180.4425122155226,
      "latitude_deg": -9.179202686689214e-05,
      "longitude_deg": -75.66300555199959,
      "height_km": 1184.743870305512,
      "semi_major_axis_km": 7559.9052171944095,
      "eccentricity": 0.00017536,
      "inclination_deg": 87.9139,
      "raan_deg": 285.9698,
      "arg_perigee_deg": 93.2614,
      "mean_anomaly_deg": 266.8719,
      "mean_motion_rev_day": 13.20773164
    },
    {
      "epoch": "2026-04-21T13:28:48.696672Z",
      "apogee_km": 1183.1003271636282,
      "perigee_km": 1180.4301696894836,
      "latitude_deg": -2.4295348187906045e-05,
      "longitude_deg": -126.0960424405873,
      "height_km": 1184.751522469928,
      "semi_major_axis_km": 7559.902248426555,
      "eccentricity": 0.0001766,
      "inclination_deg": 87.9139,
      "raan_deg": 285.7427,
      "arg_perigee_deg": 93.6963,
      "mean_anomaly_deg": 266.4372,
      "mean_motion_rev_day": 13.20773942
    },
    {
      "epoch": "2026-04-22T18:34:14.769120Z",
      "apogee_km": 1183.1001850219945,
      "perigee_km": 1180.4345627397643,
      "latitude_deg": 1.3920615548232515e-05,
      "longitude_deg": 156.10821322532325,
      "height_km": 1184.7573051330537,
      "semi_major_axis_km": 7559.90437388088,
      "eccentricity": 0.0001763,
      "inclination_deg": 87.9141,
      "raan_deg": 285.5003,
      "arg_perigee_deg": 93.8601,
      "mean_anomaly_deg": 266.2734,
      "mean_motion_rev_day": 13.20773385
    },
    {
      "epoch": "2026-04-23T00:01:30.970560Z",
      "apogee_km": 1183.0911472871812,
      "perigee_km": 1180.4483550851019,
      "latitude_deg": -1.375276815963571e-05,
      "longitude_deg": 74.02129729931615,
      "height_km": 1184.7586950381874,
      "semi_major_axis_km": 7559.906751186141,
      "eccentricity": 0.00017479,
      "inclination_deg": 87.9141,
      "raan_deg": 285.4549,
      "arg_perigee_deg": 93.8493,
      "mean_anomaly_deg": 266.284,
      "mean_motion_rev_day": 13.20772762
    }
  ]
}